{
  "type": "FeatureCollection",
  "features": [
    {
      "type": "Feature",
      "properties": {
        "norad_id": 66477,
        "name": "STARLINK-35354",
        "group": "last-30-days",
        "lat": 34.44930243054218,
        "lon": 176.11559912633172,
        "alt_km": 376.06389463782216,
        "timestamp": "2025-12-02T21:34:00.042252+00:00",
        "meta_object_name": "STARLINK-35354",
        "meta_object_id": "2025-262X",
        "meta_epoch": "2025-12-02T12:00:05.998752",
        "meta_mean_motion": 15.64295779,
        "meta_eccentricity": 0.0001599,
        "meta_inclination": 42.9992,
        "meta_ra_of_asc_node": 131.0858,
        "meta_arg_of_pericenter": 268.8808,
        "meta_mean_anomaly": 61.4767,
        "meta_ephemeris_type": 0,
        "meta_classification_type": "U",
        "meta_norad_cat_id": 66477,
        "meta_element_set_no": 999,
        "meta_rev_at_epoch": 399,
        "meta_bstar": -0.02458,
        "meta_mean_motion_dot": -0.0210727,
        "meta_mean_motion_ddot": 0,
        "tle_line1": "1 66477U 25262X   25336.50006943 -.02107270  00000+0 -24580-1 0  9993",
        "tle_line2": "2 66477  42.9992 131.0858 0001599 268.8808  61.4767 15.64295779  3994"
      },
      "geometry": {
        "type": "Point",
        "coordinates": [
          176.11559912633172,
          34.44930243054218
        ]
      }
    },
    {
      "type": "Feature",
      "properties": {
        "norad_id": 66478,
        "name": "STARLINK-35283",
        "group": "last-30-days",
        "lat": 35.315684332473516,
        "lon": 178.19331511033923,
        "alt_km": 376.0551097222442,
        "timestamp": "2025-12-02T21:34:00.042263+00:00",
        "meta_object_name": "STARLINK-35283",
        "meta_object_id": "2025-262Y",
        "meta_epoch": "2025-12-02T12:00:05.998752",
        "meta_mean_motion": 15.64292612,
        "meta_eccentricity": 0.0001726,
        "meta_inclination": 42.9993,
        "meta_ra_of_asc_node": 131.0805,
        "meta_arg_of_pericenter": 265.932,
        "meta_mean_anomaly": 66.3375,
        "meta_ephemeris_type": 0,
        "meta_classification_type": "U",
        "meta_norad_cat_id": 66478,
        "meta_element_set_no": 999,
        "meta_rev_at_epoch": 399,
        "meta_bstar": -0.024451,
        "meta_mean_motion_dot": -0.02097492,
        "meta_mean_motion_ddot": 0,
        "tle_line1": "1 66478U 25262Y   25336.50006943 -.02097492  00000+0 -24451-1 0  9995",
        "tle_line2": "2 66478  42.9993 131.0805 0001726 265.9320  66.3375 15.64292612  3999"
      },
      "geometry": {
        "type": "Point",
        "coordinates": [
          178.19331511033923,
          35.315684332473516
        ]
      }
    },
    {
      "type": "Feature",
      "properties": {
        "norad_id": 66479,
        "name": "STARLINK-35581",
        "group": "last-30-days",
        "lat": 33.54637751238786,
        "lon": 174.07626927352223,
        "alt_km": 376.19623840094846,
        "timestamp": "2025-12-02T21:34:00.042273+00:00",
        "meta_object_name": "STARLINK-35581",
        "meta_object_id": "2025-262Z",
        "meta_epoch": "2025-12-02T12:00:05.998752",
        "meta_mean_motion": 15.64298486,
        "meta_eccentricity": 0.0001649,
        "meta_inclination": 42.9991,
        "meta_ra_of_asc_node": 131.0902,
        "meta_arg_of_pericenter": 269.0691,
        "meta_mean_anomaly": 59.3654,
        "meta_ephemeris_type": 0,
        "meta_classification_type": "U",
        "meta_norad_cat_id": 66479,
        "meta_element_set_no": 999,
        "meta_rev_at_epoch": 399,
        "meta_bstar": -0.024568,
        "meta_mean_motion_dot": -0.02106638,
        "meta_mean_motion_ddot": 0,
        "tle_line1": "1 66479U 25262Z   25336.50006943 -.02106638  00000+0 -24568-1 0  9998",
        "tle_line2": "2 66479  42.9991 131.0902 0001649 269.0691  59.3654 15.64298486  3993"
      },
      "geometry": {
        "type": "Point",
        "coordinates": [
          174.07626927352223,
          33.54637751238786
        ]
      }
    },
    {
      "type": "Feature",
      "properties": {
        "norad_id": 66480,
        "name": "STARLINK-35670",
        "group": "last-30-days",
        "lat": 36.146452463922806,
        "lon": -179.682222994896,
        "alt_km": 375.9694929049174,
        "timestamp": "2025-12-02T21:34:00.042283+00:00",
        "meta_object_name": "STARLINK-35670",
        "meta_object_id": "2025-262AA",
        "meta_epoch": "2025-12-02T12:00:05.998752",
        "meta_mean_motion": 15.64289166,
        "meta_eccentricity": 0.0001802,
        "meta_inclination": 42.9994,
        "meta_ra_of_asc_node": 131.0755,
        "meta_arg_of_pericenter": 266.9607,
        "meta_mean_anomaly": 67.2243,
        "meta_ephemeris_type": 0,
        "meta_classification_type": "U",
        "meta_norad_cat_id": 66480,
        "meta_element_set_no": 999,
        "meta_rev_at_epoch": 399,
        "meta_bstar": -0.024365,
        "meta_mean_motion_dot": -0.02090916,
        "meta_mean_motion_ddot": 0,
        "tle_line1": "1 66480U 25262AA  25336.50006943 -.02090916  00000+0 -24365-1 0  9996",
        "tle_line2": "2 66480  42.9994 131.0755 0001802 266.9607  67.2243 15.64289166  3995"
      },
      "geometry": {
        "type": "Point",
        "coordinates": [
          -179.682222994896,
          36.146452463922806
        ]
      }
    },
    {
      "type": "Feature",
      "properties": {
        "norad_id": 66481,
        "name": "STARLINK-35698",
        "group": "last-30-days",
        "lat": 36.94030697435984,
        "lon": -177.5077175534016,
        "alt_km": 375.7518954215375,
        "timestamp": "2025-12-02T21:34:00.042293+00:00",
        "meta_object_name": "STARLINK-35698",
        "meta_object_id": "2025-262AB",
        "meta_epoch": "2025-12-02T12:00:05.998752",
        "meta_mean_motion": 15.64295626,
        "meta_eccentricity": 0.000166,
        "meta_inclination": 42.999,
        "meta_ra_of_asc_node": 131.0702,
        "meta_arg_of_pericenter": 270.5284,
        "meta_mean_anomaly": 65.5784,
        "meta_ephemeris_type": 0,
        "meta_classification_type": "U",
        "meta_norad_cat_id": 66481,
        "meta_element_set_no": 999,
        "meta_rev_at_epoch": 399,
        "meta_bstar": -0.024561,
        "meta_mean_motion_dot": -0.02105889,
        "meta_mean_motion_ddot": 0,
        "tle_line1": "1 66481U 25262AB  25336.50006943 -.02105889  00000+0 -24561-1 0  9991",
        "tle_line2": "2 66481  42.9990 131.0702 0001660 270.5284  65.5784 15.64295626  3997"
      },
      "geometry": {
        "type": "Point",
        "coordinates": [
          -177.5077175534016,
          36.94030697435984
        ]
      }
    },
    {
      "type": "Feature",
      "properties": {
        "norad_id": 66482,
        "name": "STARLINK-35648",
        "group": "last-30-days",
        "lat": 37.693020669802976,
        "lon": -175.29102535051763,
        "alt_km": 375.6671146265562,
        "timestamp": "2025-12-02T21:34:00.042305+00:00",
        "meta_object_name": "STARLINK-35648",
        "meta_object_id": "2025-262AC",
        "meta_epoch": "2025-12-02T12:00:05.998752",
        "meta_mean_motion": 15.64305867,
        "meta_eccentricity": 0.0001659,
        "meta_inclination": 42.9992,
        "meta_ra_of_asc_node": 131.0656,
        "meta_arg_of_pericenter": 270.5652,
        "meta_mean_anomaly": 67.4554,
        "meta_ephemeris_type": 0,
        "meta_classification_type": "U",
        "meta_norad_cat_id": 66482,
        "meta_element_set_no": 999,
        "meta_rev_at_epoch": 383,
        "meta_bstar": -0.02474,
        "meta_mean_motion_dot": -0.0211994,
        "meta_mean_motion_ddot": 0,
        "tle_line1": "1 66482U 25262AC  25336.50006943 -.02119940  00000+0 -24740-1 0  9994",
        "tle_line2": "2 66482  42.9992 131.0656 0001659 270.5652  67.4554 15.64305867  3833"
      },
      "geometry": {
        "type": "Point",
        "coordinates": [
          -175.29102535051763,
          37.693020669802976
        ]
      }
    },
    {
      "type": "Feature",
      "properties": {
        "norad_id": 66483,
        "name": "STARLINK-35654",
        "group": "last-30-days",
        "lat": 38.40261521956048,
        "lon": -173.03335897617606,
        "alt_km": 375.53995217517604,
        "timestamp": "2025-12-02T21:34:00.042315+00:00",
        "meta_object_name": "STARLINK-35654",
        "meta_object_id": "2025-262AD",
        "meta_epoch": "2025-12-02T12:00:05.998752",
        "meta_mean_motion": 15.64300776,
        "meta_eccentricity": 0.0001611,
        "meta_inclination": 42.9995,
        "meta_ra_of_asc_node": 131.0601,
        "meta_arg_of_pericenter": 270.6987,
        "meta_mean_anomaly": 69.2405,
        "meta_ephemeris_type": 0,
        "meta_classification_type": "U",
        "meta_norad_cat_id": 66483,
        "meta_element_set_no": 999,
        "meta_rev_at_epoch": 399,
        "meta_bstar": -0.024644,
        "meta_mean_motion_dot": -0.02112419,
        "meta_mean_motion_ddot": 0,
        "tle_line1": "1 66483U 25262AD  25336.50006943 -.02112419  00000+0 -24644-1 0  9992",
        "tle_line2": "2 66483  42.9995 131.0601 0001611 270.6987  69.2405 15.64300776  3993"
      },
      "geometry": {
        "type": "Point",
        "coordinates": [
          -173.03335897617606,
          38.40261521956048
        ]
      }
    }
  ]
}